{"type": "FeatureCollection", "features": [ {"type": "Feature", "properties": {"norad_id": 34635, "name": "COSMOS 2251 DEB", "group": "cosmos-2251-debris", "lat": 73.02018640287552, "lon": 166.85403715526016, "alt_km": 641.3572016495309, "timestamp": "2025-12-20T03:42:47.789089+00:00", "meta": {"OBJECT_NAME": "COSMOS 2251 DEB", "OBJECT_ID": "1993-036XG", "EPOCH": "2025-12-19T06:18:43.396992", "MEAN_MOTION": 14.68344582, "ECCENTRICITY": 0.0028013, "INCLINATION": 74.0459, "RA_OF_ASC_NODE": 58.109, "ARG_OF_PERICENTER": 124.6629, "MEAN_ANOMALY": 299.6199, "EPHEMERIS_TYPE": 0, "CLASSIFICATION_TYPE": "U", "NORAD_CAT_ID": 34635, "ELEMENT_SET_NO": 999, "REV_AT_EPOCH": 73315, "BSTAR": 0.00070963, "MEAN_MOTION_DOT": 4.094e-05, "MEAN_MOTION_DDOT": 0}, "tle": {"line1": "1 34635U 93036XG  25353.26300228  .00004094  00000+0  70963-3 0  9997", "line2": "2 34635  74.0459  58.1090 0028013 124.6629 299.6199 14.68344582733158"}}, "geometry": {"type": "Point", "coordinates": [166.85403715526016, 73.02018640287552]}}, {"type": "Feature", "properties": {"norad_id": 34637, "name": "COSMOS 2251 DEB", "group": "cosmos-2251-debris", "lat": 62.36308798008148, "lon": 120.1223349704844, "alt_km": 685.1124684734114, "timestamp": "2025-12-20T03:42:47.789099+00:00", "meta": {"OBJECT_NAME": "COSMOS 2251 DEB", "OBJECT_ID": "1993-036XJ", "EPOCH": "2025-12-19T06:10:11.394912", "MEAN_MOTION": 14.60150921, "ECCENTRICITY": 0.0049253, "INCLINATION": 74.0498, "RA_OF_ASC_NODE": 88.7269, "ARG_OF_PERICENTER": 157.5379, "MEAN_ANOMALY": 233.6347, "EPHEMERIS_TYPE": 0, "CLASSIFICATION_TYPE": "U", "NORAD_CAT_ID": 34637, "ELEMENT_SET_NO": 999, "REV_AT_EPOCH": 88622, "BSTAR": 0.0005869, "MEAN_MOTION_DOT": 2.845e-05, "MEAN_MOTION_DDOT": 0}, "tle": {"line1": "1 34637U 93036XJ  25353.25707633  .00002845  00000+0  58690-3 0  9994", "line2": "2 34637  74.0498  88.7269 0049253 157.5379 233.6347 14.60150921886220"}}, "geometry": {"type": "Point", "coordinates": [120.1223349704844, 62.36308798008148]}}, {"type": "Feature", "properties": {"norad_id": 34641, "name": "COSMOS 2251 DEB", "group": "cosmos-2251-debris", "lat": -21.83901439973755, "lon": -105.81662523425292, "alt_km": 733.8283524763056, "timestamp": "2025-12-20T03:42:47.789109+00:00", "meta": {"OBJECT_NAME": "COSMOS 2251 DEB", "OBJECT_ID": "1993-036XN", "EPOCH": "2025-12-19T11:59:01.877856", "MEAN_MOTION": 14.52049341, "ECCENTRICITY": 0.0018811, "INCLINATION": 73.8398, "RA_OF_ASC_NODE": 68.7592, "ARG_OF_PERICENTER": 341.9926, "MEAN_ANOMALY": 36.2191, "EPHEMERIS_TYPE": 0, "CLASSIFICATION_TYPE": "U", "NORAD_CAT_ID": 34641, "ELEMENT_SET_NO": 999, "REV_AT_EPOCH": 88354, "BSTAR": 0.00059825, "MEAN_MOTION_DOT": 2.396e-05, "MEAN_MOTION_DDOT": 0}, "tle": {"line1": "1 34641U 93036XN  25353.49932729  .00002396  00000+0  59825-3 0  9993", "line2": "2 34641  73.8398  68.7592 0018811 341.9926  36.2191 14.52049341883541"}}, "geometry": {"type": "Point", "coordinates": [-105.81662523425292, -21.83901439973755]}}, {"type": "Feature", "properties": {"norad_id": 34642, "name": "COSMOS 2251 DEB", "group": "cosmos-2251-debris", "lat": -45.14079506017914, "lon": -49.79633570749465, "alt_km": 1050.3237297905644, "timestamp": "2025-12-20T03:42:47.789120+00:00", "meta": {"OBJECT_NAME": "COSMOS 2251 DEB", "OBJECT_ID": "1993-036XP", "EPOCH": "2025-12-19T16:47:36.276288", "MEAN_MOTION": 13.98991151, "ECCENTRICITY": 0.0206686, "INCLINATION": 74.0042, "RA_OF_ASC_NODE": 327.7452, "ARG_OF_PERICENTER": 145.9553, "MEAN_ANOMALY": 35.4618, "EPHEMERIS_TYPE": 0, "CLASSIFICATION_TYPE": "U", "NORAD_CAT_ID": 34642, "ELEMENT_SET_NO": 999, "REV_AT_EPOCH": 85390, "BSTAR": 0.00059559, "MEAN_MOTION_DOT": 1.011e-05, "MEAN_MOTION_DDOT": 0}, "tle": {"line1": "1 34642U 93036XP  25353.69972542  .00001011  00000+0  59559-3 0  9990", "line2": "2 34642  74.0042 327.7452 0206686 145.9553  35.4618 13.98991151853907"}}, "geometry": {"type": "Point", "coordinates": [-49.79633570749465, -45.14079506017914]}}, {"type": "Feature", "properties": {"norad_id": 34671, "name": "COSMOS 2251 DEB", "group": "cosmos-2251-debris", "lat": -13.630220637851297, "lon": 115.99774911536709, "alt_km": 681.0798314347958, "timestamp": "2025-12-20T03:42:47.789130+00:00", "meta": {"OBJECT_NAME": "COSMOS 2251 DEB", "OBJECT_ID": "1993-036XR", "EPOCH": "2025-12-19T14:45:15.981120", "MEAN_MOTION": 14.67045101, "ECCENTRICITY": 0.0010962, "INCLINATION": 74.0268, "RA_OF_ASC_NODE": 121.0225, "ARG_OF_PERICENTER": 201.8745, "MEAN_ANOMALY": 173.474, "EPHEMERIS_TYPE": 0, "CLASSIFICATION_TYPE": "U", "NORAD_CAT_ID": 34671, "ELEMENT_SET_NO": 999, "REV_AT_EPOCH": 88398, "BSTAR": 0.0010446, "MEAN_MOTION_DOT": 5.839e-05, "MEAN_MOTION_DDOT": 0}, "tle": {"line1": "1 34671U 93036XR  25353.61476830  .00005839  00000+0  10446-2 0  9996", "line2": "2 34671  74.0268 121.0225 0010962 201.8745 173.4740 14.67045101883989"}}, "geometry": {"type": "Point", "coordinates": [115.99774911536709, -13.630220637851297]}}, {"type": "Feature", "properties": {"norad_id": 34672, "name": "COSMOS 2251 DEB", "group": "cosmos-2251-debris", "lat": 64.4009272828665, "lon": -31.338038175730546, "alt_km": 757.0308422781018, "timestamp": "2025-12-20T03:42:47.789140+00:00", "meta": {"OBJECT_NAME": "COSMOS 2251 DEB", "OBJECT_ID": "1993-036XS", "EPOCH": "2025-12-18T13:28:46.255872", "MEAN_MOTION": 14.36417673, "ECCENTRICITY": 0.00241418, "INCLINATION": 74.0338, "RA_OF_ASC_NODE": 294.8922, "ARG_OF_PERICENTER": 5.7391, "MEAN_ANOMALY": 109.133, "EPHEMERIS_TYPE": 0, "CLASSIFICATION_TYPE": "U", "NORAD_CAT_ID": 34672, "ELEMENT_SET_NO": 999, "REV_AT_EPOCH": 65261, "BSTAR": 0.00020838077, "MEAN_MOTION_DOT": 5.86e-06, "MEAN_MOTION_DDOT": 0}, "tle": {"line1": "1 34672U 93036XS  25352.56164648  .00000586  00000+0  20838-3 0  9992", "line2": "2 34672  74.0338 294.8922 0024141   5.7391 109.1330 14.36417673652611"}}, "geometry": {"type": "Point", "coordinates": [-31.338038175730546, 64.4009272828665]}}, {"type": "Feature", "properties": {"norad_id": 34678, "name": "COSMOS 2251 DEB", "group": "cosmos-2251-debris", "lat": 72.71428749940686, "lon": 59.10283194707452, "alt_km": 771.5220213722232, "timestamp": "2025-12-20T03:42:47.789151+00:00", "meta": {"OBJECT_NAME": "COSMOS 2251 DEB", "OBJECT_ID": "1993-036XY", "EPOCH": "2025-12-18T11:45:31.328352", "MEAN_MOTION": 14.30066037, "ECCENTRICITY": 0.00245747, "INCLINATION": 74.0376, "RA_OF_ASC_NODE": 355.2383, "ARG_OF_PERICENTER": 42.5322, "MEAN_ANOMALY": 113.3622, "EPHEMERIS_TYPE": 0, "CLASSIFICATION_TYPE": "U", "NORAD_CAT_ID": 34678, "ELEMENT_SET_NO": 999, "REV_AT_EPOCH": 87461, "BSTAR": 2.9350181e-05, "MEAN_MOTION_DOT": 5e-07, "MEAN_MOTION_DDOT": 0}, "tle": {"line1": "1 34678U 93036XY  25352.48994593  .00000050  00000+0  29350-4 0  9994", "line2": "2 34678  74.0376 355.2383 0024574  42.5322 113.3622 14.30066037874610"}}, "geometry": {"type": "Point", "coordinates": [59.10283194707452, 72.71428749940686]}}, {"type": "Feature", "properties": {"norad_id": 34680, "name": "COSMOS 2251 DEB", "group": "cosmos-2251-debris", "lat": 70.64249971383207, "lon": -118.83038604750071, "alt_km": 685.6155756867929, "timestamp": "2025-12-20T03:42:47.789161+00:00", "meta": {"OBJECT_NAME": "COSMOS 2251 DEB", "OBJECT_ID": "1993-036YA", "EPOCH": "2025-12-18T08:39:27.142848", "MEAN_MOTION": 14.60682322, "ECCENTRICITY": 0.00065553, "INCLINATION": 74.0428, "RA_OF_ASC_NODE": 119.1245, "ARG_OF_PERICENTER": 218.9141, "MEAN_ANOMALY": 172.4418, "EPHEMERIS_TYPE": 0, "CLASSIFICATION_TYPE": "U", "NORAD_CAT_ID": 34680, "ELEMENT_SET_NO": 999, "REV_AT_EPOCH": 88410, "BSTAR": 0.00092042138, "MEAN_MOTION_DOT": 4.458e-05, "MEAN_MOTION_DDOT": 0}, "tle": {"line1": "1 34680U 93036YA  25352.36073082  .00004458  00000+0  92042-3 0  9998", "line2": "2 34680  74.0428 119.1245 0006555 218.9141 172.4418 14.60682322884100"}}, "geometry": {"type": "Point", "coordinates": [-118.83038604750071, 70.64249971383207]}}, {"type": "Feature", "properties": {"norad_id": 34681, "name": "COSMOS 2251 DEB", "group": "cosmos-2251-debris", "lat": -31.81437404339793, "lon": 105.94845939312195, "alt_km": 632.8879267874354, "timestamp": "2025-12-20T03:42:47.789171+00:00", "meta": {"OBJECT_NAME": "COSMOS 2251 DEB", "OBJECT_ID": "1993-036YB", "EPOCH": "2025-12-19T20:31:54.971040", "MEAN_MOTION": 14.83371601, "ECCENTRICITY": 0.0025655, "INCLINATION": 74.0633, "RA_OF_ASC_NODE": 276.3291, "ARG_OF_PERICENTER": 332.058, "MEAN_ANOMALY": 84.1264, "EPHEMERIS_TYPE": 0, "CLASSIFICATION_TYPE": "U", "NORAD_CAT_ID": 34681, "ELEMENT_SET_NO": 999, "REV_AT_EPOCH": 89376, "BSTAR": 0.0009404, "MEAN_MOTION_DOT": 7.73e-05, "MEAN_MOTION_DDOT": 0}, "tle": {"line1": "1 34681U 93036YB  25353.85549735  .00007730  00000+0  94040-3 0  9993", "line2": "2 34681  74.0633 276.3291 0025655 332.0580  84.1264 14.83371601893763"}}, "geometry": {"type": "Point", "coordinates": [105.94845939312195, -31.81437404339793]}}, {"type": "Feature", "properties": {"norad_id": 34682, "name": "COSMOS 2251 DEB", "group": "cosmos-2251-debris", "lat": 35.38341051027898, "lon": 80.59440443711321, "alt_km": 706.1192977581431, "timestamp": "2025-12-20T03:42:47.789181+00:00", "meta": {"OBJECT_NAME": "COSMOS 2251 DEB", "OBJECT_ID": "1993-036YC", "EPOCH": "2025-12-19T06:24:40.896000", "MEAN_MOTION": 14.58938586, "ECCENTRICITY": 0.0018033, "INCLINATION": 74.0399, "RA_OF_ASC_NODE": 70.5568, "ARG_OF_PERICENTER": 203.0416, "MEAN_ANOMALY": 214.3176, "EPHEMERIS_TYPE": 0, "CLASSIFICATION_TYPE": "U", "NORAD_CAT_ID": 34682, "ELEMENT_SET_NO": 999, "REV_AT_EPOCH": 88781, "BSTAR": 0.00050754, "MEAN_MOTION_DOT": 2.356e-05, "MEAN_MOTION_DDOT": 0}, "tle": {"line1": "1 34682U 93036YC  25353.26714000  .00002356  00000+0  50754-3 0  9991", "line2": "2 34682  74.0399  70.5568 0018033 203.0416 214.3176 14.58938586887812"}}, "geometry": {"type": "Point", "coordinates": [80.59440443711321, 35.38341051027898]}}]}